0 LUCH 5B
1 38977U 12061A   13283.20819115 -.00000141  00000-0  00000+0 0  2661
2 38977 000.7900 094.9824 0005035 078.1868 264.8233 01.00270433  3729
0 LUCH 5B
1 38977U 12061A   13284.23923509 -.00000145  00000-0  00000+0 0  2673
2 38977 000.7921 094.9537 0005036 078.2372 276.9871 01.00270349  3734
0 LUCH 5B
1 38977U 12061A   13285.37190332 -.00000148  00000-0  00000+0 0  2683
2 38977 000.7942 094.8940 0005085 079.1680 324.9862 01.00270285  3744
0 LUCH 5B
1 38977U 12061A   13286.81811799 -.00000150  00000-0  00000+0 0  2694
2 38977 000.7974 094.8247 0005043 079.8332 126.4408 01.00270139  3754
0 LUCH 5B
1 38977U 12061A   13288.23491215 -.00000150  00000-0  00000+0 0  2701
2 38977 000.8004 094.7490 0005039 079.9123 277.8699 01.00270043  3771
0 LUCH 5B
1 38977U 12061A   13290.23981640  .00000000  00000-0  10000-3 0  2719
2 38977 000.8035 094.6831 0004893 083.4715 278.0992 01.00266055  3808
0 LUCH 5B
1 38977U 12061A   13290.83148536 -.00000147  00000-0  00000+0 0  2712
2 38977 000.8058 094.6805 0005038 080.1247 135.0306 01.00269828  3790
0 LUCH 5B
1 38977U 12061A   13292.33309712 -.00000144  00000-0  00000+0 0  2722
2 38977 000.8092 094.5827 0005006 083.0001 314.2952 01.00269637  3815
0 LUCH 5B
1 38977U 12061A   13293.35480934 -.00000142  00000-0  00000+0 0  2730
2 38977 000.8110 094.5466 0004876 086.1882 319.9566 01.00269553  3821
0 LUCH 5B
1 38977U 12061A   13294.36999737 -.00000140  00000-0  00000+0 0  2747
2 38977 000.8132 094.4993 0004856 086.6480 326.0021 01.00269456  3834
0 LUCH 5B
1 38977U 12061A   13296.11850256 -.00000138  00000-0  00000+0 0  2752
2 38977 000.8167 094.4502 0004854 086.9209 236.9479 01.00269334  3851
